{"spkid": "20529366", "covariance": {"labels": ["e", "q", "tp", "node", "peri", "i"], "elements": [{"units": null, "value": ".1690083339479873", "title": "eccentricity", "sigma": 5.75471299120149e-08, "name": "e", "label": "e"}, {"label": "q", "sigma": 7.07861259598442e-08, "name": "q", "title": "perihelion distance", "value": ".9810480589929804", "units": "au"}, {"value": "2457475.144619588843", "title": "time of perihelion passage", "units": "TDB", "name": "tp", "sigma": 4.25249923694582e-05, "label": "tp"}, {"sigma": 1.05643357111934e-05, "name": "om", "title": "longitude of the ascending node", "value": "240.2783939023711", "units": "deg", "label": "node"}, {"units": "deg", "value": "162.5965204213071", "title": "argument of perihelion", "name": "w", "sigma": 3.54860131920688e-05, "label": "peri"}, {"name": "i", "sigma": 1.71530890332316e-05, "units": "deg", "title": "inclination", "value": "25.76553960722689", "label": "i"}], "data": [["3.31167216111032E-15", "-4.068046193676333E-15", "-6.728275633041951E-13", "1.127793793526178E-14", "-6.386120323186763E-13", "-4.886936601425406E-14"], ["-4.068046193676333E-15", "5.010675628402926E-15", "9.108709191366531E-13", "-1.787124548970145E-14", "8.635394579309281E-13", "6.75520335808306E-14"], ["-6.728275633041951E-13", "9.108709191366531E-13", "1.808374976022476E-9", "-1.471974306869722E-10", "1.439740280534409E-9", "-1.318108589402635E-10"], ["1.127793793526178E-14", "-1.787124548970145E-14", "-1.471974306869722E-10", "1.116051890187965E-10", "-1.930585460757076E-10", "1.26180204115726E-10"], ["-6.386120323186763E-13", "8.635394579309281E-13", "1.439740280534409E-9", "-1.930585460757076E-10", "1.259257132267683E-9", "-1.702619395357008E-10"], ["-4.886936601425406E-14", "6.75520335808306E-14", "-1.318108589402635E-10", "1.26180204115726E-10", "-1.702619395357008E-10", "2.942284633819711E-10"]], "epoch": "2457678.5"}, "elements": [{"label": "e", "name": "e", "sigma": "5.7577E-8", "units": null, "value": ".1688786768076673", "title": "eccentricity"}, {"name": "a", "sigma": "5.3685E-9", "units": "au", "value": "1.180457651038708", "title": "semi-major axis", "label": "a"}, {"label": "q", "title": "perihelion distance", "value": ".9811035249038036", "units": "au", "sigma": "7.0735E-8", "name": "q"}, {"label": "i", "title": "inclination; angle with respect to x-y ecliptic plane", "value": "25.76618213637443", "units": "deg", "name": "i", "sigma": "1.7153E-5"}, {"sigma": "1.0576E-5", "name": "om", "value": "240.248070014077", "title": "longitude of the ascending node", "units": "deg", "label": "node"}, {"label": "peri", "sigma": "3.5514E-5", "name": "w", "title": "argument of perihelion", "value": "162.6469929534649", "units": "deg"}, {"units": "deg", "value": "342.7415388660132", "title": "mean anomaly", "sigma": "4.7047E-5", "name": "ma", "label": "M"}, {"sigma": "6.1347E-5", "name": "tp", "units": "TDB", "title": "time of perihelion passage", "value": "2461222.958131063262", "label": "tp"}, {"label": "period", "units": "d", "value": "468.4616502019849", "title": "sidereal orbital period", "sigma": "3.1957E-6", "name": "per"}, {"sigma": "5.2423E-9", "name": "n", "units": "deg/d", "title": "mean motion", "value": ".7684727231029052", "label": "n"}, {"sigma": "6.2751E-9", "name": "ad", "title": "aphelion distance", "value": "1.379811777173612", "units": "au", "label": "Q"}], "epoch": "2461200.5"}